0 THORAD AGENA D DEB
1 05422U 70025LA  13282.00028462  .00001979  00000-0  10021-2 0  7524
2 05422 100.0594 109.0016 0112768 300.3105 213.8613 14.14280554197711
0 THORAD AGENA D DEB
1 05422U 70025LA  13283.46132361  .00001867  00000-0  94659-3 0  7536
2 05422 100.0589 110.6457 0112733 296.3056 092.6235 14.14287715197925
0 THORAD AGENA D DEB
1 05422U 70025LA  13286.50834909  .00002025  00000-0  10243-2 0  7556
2 05422 100.0586 114.0749 0112678 287.9846 126.3949 14.14297369198356
0 THORAD AGENA D DEB
1 05422U 70025LA  13288.48473041  .00003460  00000-0  17302-2 0  7569
2 05422 100.0582 116.2977 0112668 282.6165 109.0847 14.14307457198630
0 THORAD AGENA D DEB
1 05422U 70025LA  13290.46505786  .00003013  00000-0  15102-2 0  7573
2 05422 100.0582 118.5265 0112591 277.2747 111.9082 14.14320079198915
0 THORAD AGENA D DEB
1 05422U 70025LA  13292.52289196  .00002912  00000-0  14601-2 0  7587
2 05422 100.0583 120.8424 0112517 271.6489 149.5254 14.14331045199204
0 THORAD AGENA D DEB
1 05422U 70025LA  13294.02654975  .00003489  00000-0  17439-2 0  7598
2 05422 100.0584 122.5345 0112468 267.5715 245.5322 14.14338006199417
0 THORAD AGENA D DEB
1 05422U 70025LA  13295.49274756  .00004067  00000-0  20275-2 0  7602
2 05422 100.0585 124.1844 0112455 263.5514 150.8951 14.14346671199625
